STARLINK-2703           
1 48452U 21040AA  26068.56243227  .00000180  00000+0  18217-4 0  9994
2 48452  53.1622 178.7354 0001645 114.5451 245.5721 15.30211430266668
TEVEL2-2                
1 63219U 25052K   26068.64848259  .00020339  00000+0  69428-3 0  9991
2 63219  97.3987 324.7700 0004693 105.7930 254.3828 15.30343745 54855
