[{"OBJECT_NAME":"STARLINK-2703","OBJECT_ID":"2021-040AA","EPOCH":"2026-03-09T13:29:54.148128","MEAN_MOTION":15.3021143,"ECCENTRICITY":0.0001645,"INCLINATION":53.1622,"RA_OF_ASC_NODE":178.7354,"ARG_OF_PERICENTER":114.5451,"MEAN_ANOMALY":245.5721,"EPHEMERIS_TYPE":0,"CLASSIFICATION_TYPE":"U","NORAD_CAT_ID":48452,"ELEMENT_SET_NO":999,"REV_AT_EPOCH":26666,"BSTAR":1.8217e-5,"MEAN_MOTION_DOT":1.8e-6,"MEAN_MOTION_DDOT":0},{"OBJECT_NAME":"TEVEL2-2","OBJECT_ID":"2025-052K","EPOCH":"2026-03-09T15:33:48.895776","MEAN_MOTION":15.30343745,"ECCENTRICITY":0.0004693,"INCLINATION":97.3987,"RA_OF_ASC_NODE":324.77,"ARG_OF_PERICENTER":105.793,"MEAN_ANOMALY":254.3828,"EPHEMERIS_TYPE":0,"CLASSIFICATION_TYPE":"U","NORAD_CAT_ID":63219,"ELEMENT_SET_NO":999,"REV_AT_EPOCH":5485,"BSTAR":0.00069428,"MEAN_MOTION_DOT":0.00020339,"MEAN_MOTION_DDOT":0}]
